TORO                    
1 60530U 24149BQ  26068.79501870  .00002725  00000+0  24799-3 0  9992
2 60530  97.6844 145.3205 0001020  86.2634 273.8704 14.96013579 85094
LACUNASAT-4D            
1 66781U 25276DW  26068.72955153  .00010278  00000+0  86123-3 0  9999
2 66781  97.5312 142.8344 0010850 115.0636 245.1714 14.98548204  7724
